ORBCOMM FM109 [+]       
1 40086U 14040A   17346.44315295 -.00000067  00000-0  22950-4 0  9997
2 40086  47.0052 317.5685 0002689 337.3887  22.6879 14.54655460181517
